NORAD_CAT_ID,OBJECT_NAME,OBJECT_TYPE,EPOCH,MEAN_MOTION,ECCENTRICITY,INCLINATION,RA_OF_ASC_NODE,ARG_OF_PERICENTER,MEAN_ANOMALY,BSTAR,MEAN_MOTION_DOT,MEAN_MOTION_DDOT,TLE_LINE0,TLE_LINE1,TLE_LINE2,SEMIMAJOR_AXIS,PERIOD,APOGEE,PERIGEE,DECAYED
54012.0,STARLINK-5126,PAYLOAD,2022-12-02 14:00:01,15.64966393,0.000156,53.2169,166.5339,35.4306,343.9724,-0.010051,-0.00914427,0.0,0 STARLINK-5126,1 54012U 22125BA  22336.58334491 -.00914427  00000-0 -10051-1 0  9994,2 54012  53.2169 166.5339 0001560  35.4306 343.9724 15.64966393  1304,6751.472,92.015,374.391,372.284,0.0
54012.0,STARLINK-5126,PAYLOAD,2022-12-02 20:00:01,15.644667000000002,0.0001341,53.2171,165.3142,42.7814,305.6749,-0.010075,-0.00899778,0.0,0 STARLINK-5126,1 54012U 22125BA  22336.83334491 -.00899778  00000-0 -10075-1 0  9999,2 54012  53.2171 165.3142 0001341  42.7814 305.6749 15.64466700  1307,6752.91,92.044,375.681,373.869,0.0
54012.0,STARLINK-5126,PAYLOAD,2022-12-03 06:00:00,15.6366494,0.0001658,53.217,163.2785,39.3885,136.4988,-0.010595,-0.00915089,0.0,0 STARLINK-5126,1 54012U 22125BA  22337.25001157 -.00915089  00000-0 -10595-1 0  9997,2 54012  53.2170 163.2785 0001658  39.3885 136.4988 15.63664940  9552,6755.218000000003,92.091,378.203,375.963,0.0
54012.0,STARLINK-5126,PAYLOAD,2022-12-03 14:00:01,15.63016987,0.0001599,53.2166,161.6527,39.148,213.8061,-0.010903,-0.00917579,0.0,0 STARLINK-5126,1 54012U 22125BA  22337.58334491 -.00917579  00000-0 -10903-1 0  9992,2 54012  53.2166 161.6527 0001599  39.1480 213.8061 15.63016987  1305,6757.085,92.13,380.03,377.869,0.0
54012.0,STARLINK-5126,PAYLOAD,2022-12-03 22:00:00,15.62360721,0.0001402,53.217,160.031,42.0267,287.2158,-0.011107,-0.00911439,0.0,0 STARLINK-5126,1 54012U 22125BA  22337.91667824 -.00911439  00000-0 -11107-1 0  9994,2 54012  53.2170 160.0310 0001402  42.0267 287.2158 15.62360721  1301,6758.977,92.168,381.79,379.894,0.0
54012.0,STARLINK-5126,PAYLOAD,2022-12-04 06:00:00,15.61712237,0.0001538,53.2171,158.407,32.7274,12.0191,-0.011435,-0.00914559,0.0,0 STARLINK-5126,1 54012U 22125BA  22338.25001157 -.00914559  00000-0 -11435-1 0  9993,2 54012  53.2171 158.4070 0001538  32.7274  12.0191 15.61712237  9705,6760.848000000001,92.206,383.753,381.673,0.0
54012.0,STARLINK-5126,PAYLOAD,2022-12-04 14:00:01,15.61066841,0.0001833,53.2169,156.7857,31.9645,87.5015,-0.011825,-0.00921657,0.0,0 STARLINK-5126,1 54012U 22125BA  22338.58334491 -.00921657  00000-0 -11825-1 0  9999,2 54012  53.2169 156.7857 0001833  31.9645  87.5015 15.61066841  1300,6762.7109999999975,92.245,385.816,383.337,0.0
54012.0,STARLINK-5126,PAYLOAD,2022-12-04 22:00:00,15.60401023,0.0001764999999999,53.2172,155.1683,38.12300000000001,155.2885,-0.011829,-0.00900505,0.0,0 STARLINK-5126,1 54012U 22125BA  22338.91667824 -.00900505  00000-0 -11829-1 0  9998,2 54012  53.2172 155.1683 0001765  38.1230 155.2885 15.60401023  1309,6764.635,92.284,387.694,385.306,0.0
54012.0,STARLINK-5126,PAYLOAD,2022-12-05 06:00:00,15.5975624,0.0001618,53.2175,153.5481,36.113,230.4552,-0.012274,-0.00910432,0.0,0 STARLINK-5126,1 54012U 22125BA  22339.25001157 -.00910432  00000-0 -12274-1 0  9992,2 54012  53.2175 153.5481 0001618  36.1130 230.4552 15.59756240  9862,6766.499,92.322,389.459,387.269,0.0
54012.0,STARLINK-5126,PAYLOAD,2022-12-05 14:00:01,15.59110906,0.0001538,53.2166,151.9327,36.2858,302.7191,-0.012691,-0.00917622,0.0,0 STARLINK-5126,1 54012U 22125BA  22339.58335648 -.00917622  00000-0 -12691-1 0  9994,2 54012  53.2166 151.9327 0001538  36.2858 302.7191 15.59110906  1308,6768.366,92.36,391.272,389.19,0.0
54012.0,STARLINK-5126,PAYLOAD,2022-12-05 22:00:01,15.58450368,0.0001736,53.2173,150.3193,30.9963,19.6054,-0.012802,-0.00904001,0.0,0 STARLINK-5126,1 54012U 22125BA  22339.91668981 -.00904001  00000-0 -12802-1 0  9991,2 54012  53.2173 150.3193 0001736  30.9963  19.6054 15.58450368  1308,6770.278,92.399,393.319,390.968,0.0
54012.0,STARLINK-5126,PAYLOAD,2022-12-06 06:00:00,15.57799504,0.0001753,53.2172,148.705,32.9047,88.4437,-0.013121,-0.00903937,0.0,0 STARLINK-5126,1 54012U 22125BA  22340.25001157 -.00903937  00000-0 -13121-1 0  9998,2 54012  53.2172 148.7050 0001753  32.9047  88.4437 15.57799504 10018,6772.1640000000025,92.438,395.216,392.842,0.0
54012.0,STARLINK-5126,PAYLOAD,2022-12-06 14:00:01,15.57155851,0.0001778,53.2165,147.094,37.0696,154.3679,-0.013604,-0.0091375,0.0,0 STARLINK-5126,1 54012U 22125BA  22340.58335648 -.00913750  00000-0 -13604-1 0  9999,2 54012  53.2165 147.0940 0001778  37.0696 154.3679 15.57155851  1307,6774.03,92.476,397.099,394.691,0.0
54012.0,STARLINK-5126,PAYLOAD,2022-12-06 22:00:00,15.56487997,0.0001684,53.2167,145.4864,36.5754,224.0502,-0.01356,-0.00890454,0.0,0 STARLINK-5126,1 54012U 22125BA  22340.91667824 -.00890454  00000-0 -13560-1 0  9996,2 54012  53.2167 145.4864 0001684  36.5754 224.0502 15.56487997  1309,6775.968000000003,92.516,398.974,396.692,0.0
54012.0,STARLINK-5126,PAYLOAD,2022-12-07 06:00:00,15.55755292,0.0001682,53.217,143.8762,23.6757,305.4547,-0.012041,-0.00778704,0.0,0 STARLINK-5126,1 54012U 22125BA  22341.25001157 -.00778704  00000-0 -12041-1 0  9991,2 54012  53.2170 143.8762 0001682  23.6757 305.4547 15.55755292 10173,6778.095,92.56,401.1,398.82,0.0
54012.0,STARLINK-5126,PAYLOAD,2022-12-07 14:00:01,15.55212525,0.0001513,53.2169,142.2696,8.4058,28.353,-0.014842,-0.00925772,0.0,0 STARLINK-5126,1 54012U 22125BA  22341.58334491 -.00925772  00000-0 -14842-1 0  9997,2 54012  53.2169 142.2696 0001513   8.4058  28.3530 15.55212525 10224,6779.672,92.592,402.56300000000016,400.511,0.0
54012.0,STARLINK-5126,PAYLOAD,2022-12-07 22:00:00,15.54586183,0.0001773,53.2167,140.6663,36.5178,67.1268,-0.015769,-0.00971641,0.0,0 STARLINK-5126,1 54012U 22125BA  22341.91667824 -.00971641  00000-0 -15769-1 0  9998,2 54012  53.2167 140.6663 0001773  36.5178  67.1268 15.54586183  1302,6781.493,92.629,404.56,402.155,0.0
54012.0,STARLINK-5126,PAYLOAD,2022-12-08 14:00:01,15.53245563,0.0001656,53.2168,137.459,40.5473,194.5696,-0.015601,-0.00907039,0.0,0 STARLINK-5126,1 54012U 22125BA  22342.58334491 -.00907039  00000-0 -15601-1 0  9998,2 54012  53.2168 137.4590 0001656  40.5473 194.5696 15.53245563  1302,6785.394,92.709,408.383,406.136,0.0
54012.0,STARLINK-5126,PAYLOAD,2022-12-08 17:38:03,15.54784175,0.0001807,53.2147,136.7428,78.1163,282.0051,-0.0035116999999999,-0.00231459,0.0,0 STARLINK-5126,1 54012U 22125BA  22342.73475907 -.00231459  00000-0 -35117-2 0  9994,2 54012  53.2147 136.7428 0001807  78.1163 282.0051 15.54784175 10409,6780.917,92.617,404.007,401.557,0.0
54012.0,STARLINK-5126,PAYLOAD,2022-12-09 06:00:02,15.51941286,0.0001569,53.2172,134.2586,33.8483,329.6577,-0.0163,-0.00904061,0.0,0 STARLINK-5126,1 54012U 22125BA  22343.25002315 -.00904061  00000-0 -16300-1 0  9999,2 54012  53.2172 134.2586 0001569  33.8483 329.6577 15.51941286 10487,6789.196,92.787,412.126,409.995,0.0
54012.0,STARLINK-5126,PAYLOAD,2022-12-09 14:00:01,15.51328042,0.0001564999999999,53.2167,132.6629,40.7132,25.6964,-0.017691,-0.00968304,0.0,0 STARLINK-5126,1 54012U 22125BA  22343.58334491 -.00968304  00000-0 -17691-1 0  9992,2 54012  53.2167 132.6629 0001565  40.7132  25.6964 15.51328042  1308,6790.985,92.824,413.912,411.787,0.0
54012.0,STARLINK-5126,PAYLOAD,2022-12-10 00:00:00,15.50375247,0.000193,53.2167,130.66899999999998,41.5963,192.4791,-0.0098002999999999,-0.0052983999999999,0.0,0 STARLINK-5126,1 54012U 22125BA  22344.00001157 -.00529840  00000-0 -98003-2 0  9995,2 54012  53.2167 130.6690 0001930  41.5963 192.4791 15.50375247 10603,6793.767,92.881,416.943,414.32,0.0
54012.0,STARLINK-5126,PAYLOAD,2022-12-10 14:00:01,15.49884178,0.0001763,53.2175,127.8795,37.2384,213.8191,4.7817e-05,2.263e-05,0.0,0 STARLINK-5126,1 54012U 22125BA  22344.58334491  .00002263  00000-0  47817-4 0  9990,2 54012  53.2175 127.8795 0001763  37.2384 213.8191 15.49884178 10696,6795.2019999999975,92.91,418.265,415.869,0.0
54012.0,STARLINK-5126,PAYLOAD,2022-12-10 22:00:00,15.49889813,0.000227,53.2143,126.2935,39.7553,272.0239,0.00069095,0.00038967,0.0,0 STARLINK-5126,1 54012U 22125BA  22344.91667824  .00038967  00000-0  69095-3 0  9997,2 54012  53.2143 126.2935 0002270  39.7553 272.0239 15.49889813 10746,6795.185,92.91,418.593,415.508,0.0
54012.0,STARLINK-5126,PAYLOAD,2022-12-11 00:00:00,15.49885924,0.0001754,53.2172,125.8882,37.8636,19.3362,-6.3287e-06,-8.11e-06,0.0,0 STARLINK-5126,1 54012U 22125BA  22345.00001157 -.00000811  00000-0 -63287-5 0  9997,2 54012  53.2172 125.8882 0001754  37.8636  19.3362 15.49885924  1301,6795.196,92.91,418.253,415.87,0.0
54012.0,STARLINK-5126,PAYLOAD,2022-12-11 14:00:01,15.4995146,0.0002272,53.2149,123.1067,43.392,30.2878,-0.00021923,-0.00012905,0.0,0 STARLINK-5126,1 54012U 22125BA  22345.58334491 -.00012905  00000-0 -21923-3 0  9996,2 54012  53.2149 123.1067 0002272  43.3920  30.2878 15.49951460  1308,6795.005,92.906,418.414,415.326,0.0
54012.0,STARLINK-5126,PAYLOAD,2022-12-11 22:00:01,15.49968473,0.0002323,53.2141,121.514,39.6834,95.0283,-0.00089385,-0.00051008,0.0,0 STARLINK-5126,1 54012U 22125BA  22345.91668981 -.00051008  00000-0 -89385-3 0  9990,2 54012  53.2141 121.5140 0002323  39.6834  95.0283 15.49968473 10900,6794.955,92.905,418.399,415.242,0.0
54012.0,STARLINK-5126,PAYLOAD,2022-12-12 14:00:01,15.50058804,0.0001913,53.2158,118.3247,41.5897,214.968,-0.0064738,-0.0035397,0.0,0 STARLINK-5126,1 54012U 22125BA  22346.58334491 -.00353970  00000-0 -64738-2 0  9997,2 54012  53.2158 118.3247 0001913  41.5897 214.9680 15.50058804  1302,6794.691,92.9,417.856,415.256,0.0
54012.0,STARLINK-5126,PAYLOAD,2022-12-12 22:00:00,15.49727267,0.0002064,53.2161,116.7296,32.974000000000004,284.5854,-0.0074973,-0.00402613,0.0,0 STARLINK-5126,1 54012U 22125BA  22346.91667824 -.00402613  00000-0 -74973-2 0  9994,2 54012  53.2161 116.7296 0002064  32.9740 284.5854 15.49727267 11054,6795.66,92.92,418.92800000000005,416.12300000000016,0.0
